H1 CPF 01  gfz 2022 05 27 00  6471 tandemx   
H2 1003001  6202 36605    2022 05 27 00 59 42 2022 06 01 00 00 42   120 1 1  0 0 0
H9
10 0 59726  69822.000000  0    5551587.131  -1553606.164  -3780278.410
10 0 59726  69942.000000  0    5922929.833  -1860244.065  -2995523.377
10 0 59726  70062.000000  0    6185934.744  -2140017.162  -2158201.934
10 0 59726  70182.000000  0    6336443.014  -2386081.121  -1282970.545
10 0 59726  70302.000000  0    6372379.495  -2592121.171   -385183.850
10 0 59726  70422.000000  0    6293788.340  -2752503.945    519378.944
10 0 59726  70542.000000  0    6102826.483  -2862417.166   1414798.425
10 0 59726  70662.000000  0    5803714.315  -2917993.569   2285304.759
10 0 59726  70782.000000  0    5402643.258  -2916415.874   3115564.294
10 0 59726  70902.000000  0    4907644.435  -2855999.349   3890957.734
10 0 59726  71022.000000  0    4328421.491  -2736249.648   4597841.665
10 0 59726  71142.000000  0    3676154.526  -2557897.016   5223791.330
10 0 59726  71262.000000  0    2963275.206  -2322904.603   5757819.792
10 0 59726  71382.000000  0    2203221.950  -2034449.899   6190566.803
10 0 59726  71502.000000  0    1410181.107  -1696881.824   6514457.691
10 0 59726  71622.000000  0     598818.255  -1315653.995   6723830.177
10 0 59726  71742.000000  0    -215995.189   -897235.060   6815027.424
10 0 59726  71862.000000  0   -1019454.395   -448997.811   6786457.142
10 0 59726  71982.000000  0   -1797088.889     20910.586   6638617.336
10 0 59726  72102.000000  0   -2535022.139    503716.319   6374088.268
10 0 59726  72222.000000  0   -3220219.066    990181.928   5997490.700
10 0 59726  72342.000000  0   -3840718.110   1470781.917   5515410.681
10 0 59726  72462.000000  0   -4385844.653   1935888.482   4936290.979
10 0 59726  72582.000000  0   -4846401.624   2375964.408   4270288.883
10 0 59726  72702.000000  0   -5214831.740   2781759.388   3529101.501
10 0 59726  72822.000000  0   -5485348.517   3144504.544   2725762.323
10 0 59726  72942.000000  0   -5654033.792   3456101.732   1874412.209
10 0 59726  73062.000000  0   -5718899.517   3709303.825    990047.030
10 0 59726  73182.000000  0   -5679909.313   3897879.336     88246.005
10 0 59726  73302.000000  0   -5538960.660   4016757.560   -815110.518
10 0 59726  73422.000000  0   -5299828.608   4062151.358  -1704129.602
10 0 59726  73542.000000  0   -4968071.065   4031653.959  -2563195.274
10 0 59726  73662.000000  0   -4550897.355   3924306.041  -3377249.806
10 0 59726  73782.000000  0   -4057005.929   3740632.777  -4132060.938
10 0 59726  73902.000000  0   -3496395.984   3482650.886  -4814469.235
10 0 59726  74022.000000  0   -2880158.071   3153846.043  -5412612.018
10 0 59726  74142.000000  0   -2220250.887   2759122.406  -5916120.640
10 0 59726  74262.000000  0   -1529266.230   2304725.369  -6316291.090
10 0 59726  74382.000000  0    -820187.559   1798138.221  -6606222.438
10 0 59726  74502.000000  0    -106148.737   1247957.339  -6780924.209
10 0 59726  74622.000000  0     599804.133    663746.712  -6837392.710
10 0 59726  74742.000000  0    1284944.921     55875.070  -6774658.440
10 0 59726  74862.000000  0    1937092.539   -564664.605  -6593800.584
10 0 59726  74982.000000  0    2544821.783  -1186448.611  -6297929.616
10 0 59726  75102.000000  0    3097660.347  -1797827.395  -5892139.914
10 0 59726  75222.000000  0    3586267.994  -2387138.271  -5383431.639
10 0 59726  75342.000000  0    4002597.824  -2942926.030  -4780602.362
10 0 59726  75462.000000  0    4340033.054  -3454165.862  -4094104.559
10 0 59726  75582.000000  0    4593497.126  -3910482.513  -3335874.585
10 0 59726  75702.000000  0    4759537.347  -4302363.517  -2519133.945
10 0 59726  75822.000000  0    4836377.890  -4621361.076  -1658163.193
10 0 59726  75942.000000  0    4823940.412  -4860277.777   -768053.176
10 0 59726  76062.000000  0    4723829.823  -5013330.954    135563.179
10 0 59726  76182.000000  0    4539285.629  -5076289.975   1036791.786
10 0 59726  76302.000000  0    4275100.627  -5046583.390   1919765.785
10 0 59726  76422.000000  0    3937506.548  -4923371.986   2768933.876
10 0 59726  76542.000000  0    3534032.245  -4707587.691   3569341.837
10 0 59726  76662.000000  0    3073336.543  -4401935.855   4306902.598
10 0 59726  76782.000000  0    2565020.771  -4010861.142   4968647.797
10 0 59726  76902.000000  0    2019426.044  -3540478.759   5542956.410
10 0 59726  77022.000000  0    1447419.820  -2998473.159   6019757.287
10 0 59726  77142.000000  0     860176.362  -2393965.694   6390701.004
10 0 59726  77262.000000  0     268956.695  -1737356.351   6649299.768
10 0 59726  77382.000000  0    -315107.728  -1040141.811   6791034.467
10 0 59726  77502.000000  0    -881223.556   -314712.123   6813429.484
10 0 59726  77622.000000  0   -1419134.115    425870.082   6716092.982
10 0 59726  77742.000000  0   -1919304.735   1168104.416   6500723.204
10 0 59726  77862.000000  0   -2373091.719   1898297.988   6171080.635
10 0 59726  77982.000000  0   -2772892.613   2602817.476   5732926.462
10 0 59726  78102.000000  0   -3112275.411   3268344.786   5193928.088
10 0 59726  78222.000000  0   -3386085.540   3882131.426   4563531.288
10 0 59726  78342.000000  0   -3590527.423   4432247.502   3852800.070
10 0 59726  78462.000000  0   -3723218.823   4907819.869   3074225.739
10 0 59726  78582.000000  0   -3783216.491   5299254.086   2241507.548
10 0 59726  78702.000000  0   -3771011.863   5598433.324   1369308.485
10 0 59726  78822.000000  0   -3688497.257   5798890.228    472992.846
10 0 59726  78942.000000  0   -3538904.484   5895949.306   -431651.207
10 0 59726  79062.000000  0   -3326714.742   5886833.025  -1328700.144
10 0 59726  79182.000000  0   -3057543.019   5770728.235  -2202385.894
10 0 59726  79302.000000  0   -2737997.955   5548811.207  -3037381.000
10 0 59726  79422.000000  0   -2375524.998   5224233.794  -3819070.689
10 0 59726  79542.000000  0   -1978236.659   4802070.533  -4533809.907
10 0 59726  79662.000000  0   -1554732.664   4289228.108  -5169157.238
10 0 59726  79782.000000  0   -1113916.587   3694323.111  -5714083.840
10 0 59726  79902.000000  0    -664811.058   3027529.174  -6159156.758
10 0 59726  80022.000000  0    -216375.445   2300395.616  -6496691.665
10 0 59726  80142.000000  0     222669.122   1525644.079  -6720873.114
10 0 59726  80262.000000  0     644004.344    716946.629  -6827845.233
10 0 59726  80382.000000  0    1039868.495   -111312.094  -6815771.077
10 0 59726  80502.000000  0    1403195.683   -944286.059  -6684860.082
10 0 59726  80622.000000  0    1727738.282  -1766927.114  -6437363.371
10 0 59726  80742.000000  0    2008172.373  -2564249.259  -6077539.656
10 0 59726  80862.000000  0    2240184.738  -3321595.892  -5611591.068
10 0 59726  80982.000000  0    2420540.216  -4024908.728  -5047567.983
10 0 59726  81102.000000  0    2547127.396  -4660990.284  -4395239.210
10 0 59726  81222.000000  0    2618981.670  -5217753.957  -3665933.490
10 0 59726  81342.000000  0    2636285.257  -5684461.075  -2872353.065
10 0 59726  81462.000000  0    2600344.118  -6051937.696  -2028358.598
10 0 59726  81582.000000  0    2513542.064  -6312765.901  -1148730.106
10 0 59726  81702.000000  0    2379271.576  -6461444.120   -248905.690
10 0 59726  81822.000000  0    2201842.225  -6494509.024    655295.533
10 0 59726  81942.000000  0    1986370.349  -6410618.703   1547958.096
10 0 59726  82062.000000  0    1738652.269  -6210593.708   2413360.525
10 0 59726  82182.000000  0    1465022.591  -5897412.151   3236261.331
10 0 59726  82302.000000  0    1172203.675  -5476162.171   4002174.146
10 0 59726  82422.000000  0     867148.963  -4953952.444   4697626.777
10 0 59726  82542.000000  0     556884.482  -4339784.845   5310400.270
10 0 59726  82662.000000  0     248351.513  -3644389.522   5829743.624
10 0 59726  82782.000000  0     -51743.990  -2880026.930   6246558.601
10 0 59726  82902.000000  0    -337073.437  -2060263.990   6553552.148
10 0 59726  83022.000000  0    -601815.787  -1199729.694   6745357.443
10 0 59726  83142.000000  0    -840773.915   -313852.214   6818623.332
10 0 59726  83262.000000  0   -1049475.344    581419.005   6772069.984
10 0 59726  83382.000000  0   -1224255.488   1469900.449   6606509.590
10 0 59726  83502.000000  0   -1362321.683   2335466.446   6324832.891
10 0 59726  83622.000000  0   -1461797.947   3162341.740   5931961.976
10 0 59726  83742.000000  0   -1521749.709   3935390.444   5434768.991
10 0 59726  83862.000000  0   -1542187.142   4640396.386   4841962.235
10 0 59726  83982.000000  0   -1524048.462   5264331.338   4163939.705
10 0 59726  84102.000000  0   -1469162.011   5795603.973   3412610.280
10 0 59726  84222.000000  0   -1380189.288   6224284.052   2601186.880
10 0 59726  84342.000000  0   -1260550.148   6542298.431   1743952.991
10 0 59726  84462.000000  0   -1114328.446   6743591.916    856006.422
10 0 59726  84582.000000  0    -946163.246   6824248.049    -47012.907
10 0 59726  84702.000000  0    -761127.957   6782569.432   -949206.278
10 0 59726  84822.000000  0    -564599.705   6619112.277  -1834707.266
10 0 59726  84942.000000  0    -362123.501   6336672.111  -2687969.792
10 0 59726  85062.000000  0    -159275.289   5940225.717  -3494045.408
10 0 59726  85182.000000  0      38473.699   5436832.379  -4238846.718
10 0 59726  85302.000000  0     225888.294   4835496.017  -4909392.368
10 0 59726  85422.000000  0     398093.070   4146992.080  -5494028.331
10 0 59726  85542.000000  0     550685.616   3383663.920  -5982622.694
10 0 59726  85662.000000  0     679836.401   2559192.994  -6366730.899
10 0 59726  85782.000000  0     782373.936   1688349.268  -6639729.764
10 0 59726  85902.000000  0     855854.094    786726.993  -6796920.629
10 0 59726  86022.000000  0     898611.986   -129531.257  -6835601.894
10 0 59726  86142.000000  0     909796.295  -1044018.351  -6755110.159
10 0 59726  86262.000000  0     889385.007  -1940349.092  -6556828.535
99
